{
  "type": "FeatureCollection",
  "features": [
    {
      "type": "Feature",
      "properties": {
        "name": "LT-01",
        "type": "零碳区",
        "area_name": "三阳路合围区域",
        "area_code": "LT-01"
      },
      "geometry": {
        "type": "Polygon",
        "coordinates": [[
          [114.29805, 30.58795],
          [114.29785, 30.59235],
          [114.29765, 30.59515],
          [114.28925, 30.59385],
          [114.28315, 30.59255],
          [114.28295, 30.58715],
          [114.28265, 30.58035],
          [114.28625, 30.57945],
          [114.29135, 30.57825],
          [114.29575, 30.57765],
          [114.29815, 30.58415],
          [114.29805, 30.58795]
        ]]
      }
    },
    {
      "type": "Feature",
      "properties": {
        "name": "LT-02",
        "type": "零碳区",
        "area_name": "东湖合围区域",
        "area_code": "LT-02"
      },
      "geometry": {
        "type": "Polygon",
        "coordinates": [[
          [114.34145, 30.54595],
          [114.35205, 30.54535],
          [114.36475, 30.54395],
          [114.37605, 30.54135],
          [114.37635, 30.54745],
          [114.37615, 30.55295],
          [114.38225, 30.55315],
          [114.39215, 30.55285],
          [114.39965, 30.55245],
          [114.40555, 30.55215],
          [114.40635, 30.56055],
          [114.40445, 30.56895],
          [114.40065, 30.57825],
          [114.39255, 30.57865],
          [114.38615, 30.57855],
          [114.38345, 30.57265],
          [114.37565, 30.56875],
          [114.36395, 30.55835],
          [114.35845, 30.55175],
          [114.35075, 30.55115],
          [114.34145, 30.54595]
        ]]
      }
    },
    {
      "type": "Feature",
      "properties": {
        "name": "LT-03",
        "type": "零碳区",
        "area_name": "澳门路合围区域",
        "area_code": "LT-03"
      },
      "geometry": {
        "type": "Polygon",
        "coordinates": [[
          [114.29415, 30.60535],
          [114.29435, 30.60945],
          [114.29885, 30.60925],
          [114.30615, 30.60895],
          [114.30485, 30.60515],
          [114.30025, 30.60495],
          [114.29415, 30.60535]
        ]]
      }
    },
    {
      "type": "Feature",
      "properties": {
        "name": "LS-01",
        "type": "绿色区",
        "area_name": "二环线内区域",
        "area_code": "LS-01"
      },
      "geometry": {
        "type": "Polygon",
        "coordinates": [[
          [114.34615, 30.62345],
          [114.35225, 30.61615],
          [114.36315, 30.60225],
          [114.35615, 30.58615],
          [114.34125, 30.56415],
          [114.32215, 30.55615],
          [114.28615, 30.55115],
          [114.24515, 30.56615],
          [114.21515, 30.58215],
          [114.20515, 30.60215],
          [114.23215, 30.61515],
          [114.27615, 30.62515],
          [114.31215, 30.62715],
          [114.34615, 30.62345]
        ]]
      }
    },
    {
      "type": "Feature",
      "properties": {
        "name": "LS-02",
        "type": "绿色区",
        "area_name": "珞狮路-东湖合围区域",
        "area_code": "LS-02"
      },
      "geometry": {
        "type": "Polygon",
        "coordinates": [[
          [114.34115, 30.54815],
          [114.33815, 30.53215],
          [114.32615, 30.52415],
          [114.35215, 30.52115],
          [114.36815, 30.52815],
          [114.38215, 30.53615],
          [114.39615, 30.54615],
          [114.41015, 30.55415],
          [114.40215, 30.56715],
          [114.38915, 30.57115],
          [114.37615, 30.57415],
          [114.36315, 30.57715],
          [114.35215, 30.57115],
          [114.34115, 30.54815]
        ]]
      }
    },
    {
      "type": "Feature",
      "properties": {
        "name": "LS-03",
        "type": "绿色区",
        "area_name": "杨春湖路-团结大道合围区域",
        "area_code": "LS-03"
      },
      "geometry": {
        "type": "Polygon",
        "coordinates": [[
          [114.37425, 30.60785],
          [114.37615, 30.60525],
          [114.37965, 30.60315],
          [114.38425, 30.59985],
          [114.39015, 30.59725],
          [114.39455, 30.59515],
          [114.39725, 30.59345],
          [114.39485, 30.58975],
          [114.38975, 30.58715],
          [114.38455, 30.58925],
          [114.37915, 30.59265],
          [114.37555, 30.59785],
          [114.37325, 30.60345],
          [114.37425, 30.60785]
        ]]
      }
    },
    {
      "type": "Feature",
      "properties": {
        "name": "LS-04",
        "type": "绿色区",
        "area_name": "临江大道-建设八路合围区域",
        "area_code": "LS-04"
      },
      "geometry": {
        "type": "Polygon",
        "coordinates": [[
          [114.38115, 30.63215],
          [114.37515, 30.62815],
          [114.36915, 30.62515],
          [114.36515, 30.62715],
          [114.37215, 30.63315],
          [114.38115, 30.63215]
        ]]
      }
    },
    {
      "type": "Feature",
      "properties": {
        "name": "LS-05",
        "type": "绿色区",
        "area_name": "东西湖合围区域",
        "area_code": "LS-05"
      },
      "geometry": {
        "type": "Polygon",
        "coordinates": [[
          [114.21515, 30.64815],
          [114.21015, 30.63515],
          [114.19515, 30.63015],
          [114.18815, 30.62515],
          [114.18215, 30.61815],
          [114.17515, 30.61215],
          [114.16815, 30.60815],
          [114.18215, 30.62215],
          [114.19815, 30.63815],
          [114.21515, 30.64815]
        ]]
      }
    },
    {
      "type": "Feature",
      "properties": {
        "name": "LS-06",
        "type": "绿色区",
        "area_name": "光谷中心城区域",
        "area_code": "LS-06"
      },
      "geometry": {
        "type": "Polygon",
        "coordinates": [[
          [114.41515, 30.50815],
          [114.43215, 30.50515],
          [114.43515, 30.51515],
          [114.44215, 30.51815],
          [114.44515, 30.51215],
          [114.44815, 30.50815],
          [114.45215, 30.50215],
          [114.44815, 30.49515],
          [114.43515, 30.49215],
          [114.42215, 30.49615],
          [114.41515, 30.50815]
        ]]
      }
    },
    {
      "type": "Feature",
      "properties": {
        "name": "LS-07",
        "type": "绿色区",
        "area_name": "江夏核心区",
        "area_code": "LS-07"
      },
      "geometry": {
        "type": "Polygon",
        "coordinates": [[
          [114.31515, 30.37515],
          [114.32215, 30.36515],
          [114.33215, 30.36215],
          [114.34215, 30.35815],
          [114.35215, 30.35515],
          [114.35815, 30.36215],
          [114.34815, 30.37215],
          [114.33515, 30.37815],
          [114.31515, 30.37515]
        ]]
      }
    },
    {
      "type": "Feature",
      "properties": {
        "name": "LS-08",
        "type": "绿色区",
        "area_name": "黄陂前川区域",
        "area_code": "LS-08"
      },
      "geometry": {
        "type": "Polygon",
        "coordinates": [[
          [114.37515, 30.88515],
          [114.37215, 30.89215],
          [114.36815, 30.89515],
          [114.36515, 30.89815],
          [114.36215, 30.89515],
          [114.35815, 30.89215],
          [114.35515, 30.88815],
          [114.35215, 30.88515],
          [114.35815, 30.88215],
          [114.36515, 30.88015],
          [114.37215, 30.88215],
          [114.37515, 30.88515]
        ]]
      }
    },
    {
      "type": "Feature",
      "properties": {
        "name": "LS-09",
        "type": "绿色区",
        "area_name": "康居路-和居路-宜居路区域",
        "area_code": "LS-09"
      },
      "geometry": {
        "type": "Polygon",
        "coordinates": [[
          [114.38515, 30.62515],
          [114.39215, 30.62815],
          [114.39315, 30.62515],
          [114.38615, 30.62215],
          [114.38815, 30.61815],
          [114.39515, 30.62215],
          [114.38515, 30.62515]
        ]]
      }
    },
    {
      "type": "Feature",
      "properties": {
        "name": "SD-01",
        "type": "适度区",
        "area_name": "桥梁隧道控制区",
        "area_code": "SD-01"
      },
      "geometry": {
        "type": "GeometryCollection",
        "geometries": [
          {
            "type": "LineString",
            "coordinates": [[114.28715, 30.54515], [114.29515, 30.55215]]
          },
          {
            "type": "LineString",
            "coordinates": [[114.26515, 30.56815], [114.26815, 30.56215]]
          },
          {
            "type": "LineString",
            "coordinates": [[114.31515, 30.61815], [114.32215, 30.60515]]
          },
          {
            "type": "Point",
            "coordinates": [114.29515, 30.58515]
          },
          {
            "type": "Point",
            "coordinates": [114.30515, 30.57515]
          },
          {
            "type": "Point",
            "coordinates": [114.37515, 30.56515]
          },
          {
            "type": "Point",
            "coordinates": [114.33515, 30.55515]
          },
          {
            "type": "Point",
            "coordinates": [114.34515, 30.52515]
          }
        ]
      }
    },
    {
      "type": "Feature",
      "properties": {
        "name": "SD-02",
        "type": "适度区",
        "area_name": "其他桥梁高架区",
        "area_code": "SD-02"
      },
      "geometry": {
        "type": "GeometryCollection",
        "geometries": [
          {
            "type": "LineString",
            "coordinates": [[114.23415, 30.48515], [114.24415, 30.48015]]
          },
          {
            "type": "LineString",
            "coordinates": [[114.27215, 30.52515], [114.28215, 30.52815]]
          },
          {
            "type": "LineString",
            "coordinates": [[114.31815, 30.62815], [114.32615, 30.62215]]
          },
          {
            "type": "LineString",
            "coordinates": [[114.35215, 30.65815], [114.36215, 30.65215]]
          },
          {
            "type": "LineString",
            "coordinates": [[114.22515, 30.58215], [114.22815, 30.57615]]
          },
          {
            "type": "LineString",
            "coordinates": [[114.25515, 30.56515], [114.25815, 30.55815]]
          },
          {
            "type": "LineString",
            "coordinates": [[114.28215, 30.57215], [114.28515, 30.56815]]
          },
          {
            "type": "LineString",
            "coordinates": [[114.16594, 30.60162], [114.17015, 30.59515]]
          },
          {
            "type": "LineString",
            "coordinates": [[114.19815, 30.59815], [114.20215, 30.59215]]
          },
          {
            "type": "LineString",
            "coordinates": [[114.23215, 30.54215], [114.23515, 30.54515], [114.23815, 30.54815]]
          },
          {
            "type": "LineString",
            "coordinates": [[114.35015, 30.67015], [114.36015, 30.68015]]
          },
          {
            "type": "LineString",
            "coordinates": [[114.36015, 30.63015], [114.37015, 30.62015]]
          },
          {
            "type": "LineString",
            "coordinates": [[114.37015, 30.62015], [114.38015, 30.61015]]
          },
          {
            "type": "LineString",
            "coordinates": [[114.38015, 30.61015], [114.39015, 30.60515]]
          },
          {
            "type": "LineString",
            "coordinates": [[114.39015, 30.60515], [114.40015, 30.60015]]
          },
          {
            "type": "LineString",
            "coordinates": [[114.40015, 30.60015], [114.41015, 30.59515]]
          },
          {
            "type": "Point",
            "coordinates": [114.18515, 30.61815]
          },
          {
            "type": "Point",
            "coordinates": [114.23515, 30.63515]
          },
          {
            "type": "Point",
            "coordinates": [114.28515, 30.65215]
          },
          {
            "type": "Point",
            "coordinates": [114.42515, 30.50815]
          }
        ]
      }
    }
  ]
}